{"type": "FeatureCollection", "features": [ {"type": "Feature", "properties": {"norad_id": 34077, "name": "IRIDIUM 33 DEB", "group": "iridium-33-debris", "lat": -48.85912762615391, "lon": -120.8229860814433, "alt_km": 692.612967145642, "timestamp": "2025-12-04T17:48:40.549526+00:00", "meta": {"OBJECT_NAME": "IRIDIUM 33 DEB", "OBJECT_ID": "1997-051CL", "EPOCH": "2025-12-04T07:15:09.830304", "MEAN_MOTION": 14.64621053, "ECCENTRICITY": 0.0010928, "INCLINATION": 86.3873, "RA_OF_ASC_NODE": 55.2234, "ARG_OF_PERICENTER": 66.0803, "MEAN_ANOMALY": 4.643, "EPHEMERIS_TYPE": 0, "CLASSIFICATION_TYPE": "U", "NORAD_CAT_ID": 34077, "ELEMENT_SET_NO": 999, "REV_AT_EPOCH": 88209, "BSTAR": 0.0046171322, "MEAN_MOTION_DOT": 0.00024632, "MEAN_MOTION_DDOT": 0}, "tle": {"line1": "1 34077U 97051CL  25338.30219711  .00024632  00000+0  46171-2 0  9995", "line2": "2 34077  86.3873  55.2234 0010928  66.0803   4.6430 14.64621053882098"}}, "geometry": {"type": "Point", "coordinates": [-120.8229860814433, -48.85912762615391]}}, {"type": "Feature", "properties": {"norad_id": 34079, "name": "IRIDIUM 33 DEB", "group": "iridium-33-debris", "lat": 45.051436853675234, "lon": 15.93741358612039, "alt_km": 610.9307377722544, "timestamp": "2025-12-04T17:48:40.549537+00:00", "meta": {"OBJECT_NAME": "IRIDIUM 33 DEB", "OBJECT_ID": "1997-051CN", "EPOCH": "2025-12-04T03:17:56.762592", "MEAN_MOTION": 14.83177277, "ECCENTRICITY": 0.00066276, "INCLINATION": 86.3779, "RA_OF_ASC_NODE": 12.5738, "ARG_OF_PERICENTER": 34.6176, "MEAN_ANOMALY": 24.0914, "EPHEMERIS_TYPE": 0, "CLASSIFICATION_TYPE": "U", "NORAD_CAT_ID": 34079, "ELEMENT_SET_NO": 999, "REV_AT_EPOCH": 88850, "BSTAR": 0.0034856602, "MEAN_MOTION_DOT": 0.0002856, "MEAN_MOTION_DDOT": 0}, "tle": {"line1": "1 34079U 97051CN  25338.13746253  .00028560  00000+0  34857-2 0  9996", "line2": "2 34079  86.3779  12.5738 0006627  34.6176  24.0914 14.83177277888505"}}, "geometry": {"type": "Point", "coordinates": [15.93741358612039, 45.051436853675234]}}, {"type": "Feature", "properties": {"norad_id": 34088, "name": "IRIDIUM 33 DEB", "group": "iridium-33-debris", "lat": -84.09169820494353, "lon": -3.249285104006491, "alt_km": 601.6201522554247, "timestamp": "2025-12-04T17:48:40.549547+00:00", "meta": {"OBJECT_NAME": "IRIDIUM 33 DEB", "OBJECT_ID": "1997-051CX", "EPOCH": "2025-12-04T03:55:52.243968", "MEAN_MOTION": 14.90715065, "ECCENTRICITY": 0.0005152, "INCLINATION": 86.3857, "RA_OF_ASC_NODE": 34.6625, "ARG_OF_PERICENTER": 208.3378, "MEAN_ANOMALY": 204.601, "EPHEMERIS_TYPE": 0, "CLASSIFICATION_TYPE": "U", "NORAD_CAT_ID": 34088, "ELEMENT_SET_NO": 999, "REV_AT_EPOCH": 88614, "BSTAR": 0.0059019628, "MEAN_MOTION_DOT": 0.00058368, "MEAN_MOTION_DDOT": 0}, "tle": {"line1": "1 34088U 97051CX  25338.16379912  .00058368  00000+0  59020-2 0  9991", "line2": "2 34088  86.3857  34.6625 0005152 208.3378 204.6010 14.90715065886140"}}, "geometry": {"type": "Point", "coordinates": [-3.249285104006491, -84.09169820494353]}}, {"type": "Feature", "properties": {"norad_id": 34091, "name": "IRIDIUM 33 DEB", "group": "iridium-33-debris", "lat": 20.320674695489643, "lon": 71.85141206574603, "alt_km": 614.4435264388403, "timestamp": "2025-12-04T17:48:40.549558+00:00", "meta": {"OBJECT_NAME": "IRIDIUM 33 DEB", "OBJECT_ID": "1997-051DA", "EPOCH": "2025-12-04T06:22:03.365472", "MEAN_MOTION": 14.80787166, "ECCENTRICITY": 0.00329957, "INCLINATION": 86.3424, "RA_OF_ASC_NODE": 70.712, "ARG_OF_PERICENTER": 323.9613, "MEAN_ANOMALY": 35.9384, "EPHEMERIS_TYPE": 0, "CLASSIFICATION_TYPE": "U", "NORAD_CAT_ID": 34091, "ELEMENT_SET_NO": 999, "REV_AT_EPOCH": 87741, "BSTAR": 0.013386557, "MEAN_MOTION_DOT": 0.00105581, "MEAN_MOTION_DDOT": 0}, "tle": {"line1": "1 34091U 97051DA  25338.26531673  .00105581  00000+0  13387-1 0  9995", "line2": "2 34091  86.3424  70.7120 0032995 323.9613  35.9384 14.80787166877415"}}, "geometry": {"type": "Point", "coordinates": [71.85141206574603, 20.320674695489643]}}, {"type": "Feature", "properties": {"norad_id": 34097, "name": "IRIDIUM 33 DEB", "group": "iridium-33-debris", "lat": 10.667004642842375, "lon": -175.77904628114962, "alt_km": 823.980235257307, "timestamp": "2025-12-04T17:48:40.549569+00:00", "meta": {"OBJECT_NAME": "IRIDIUM 33 DEB", "OBJECT_ID": "1997-051DG", "EPOCH": "2025-12-04T01:57:54.018144", "MEAN_MOTION": 14.34672763, "ECCENTRICITY": 0.00835917, "INCLINATION": 86.2004, "RA_OF_ASC_NODE": 5.2294, "ARG_OF_PERICENTER": 30.3184, "MEAN_ANOMALY": 330.2808, "EPHEMERIS_TYPE": 0, "CLASSIFICATION_TYPE": "U", "NORAD_CAT_ID": 34097, "ELEMENT_SET_NO": 999, "REV_AT_EPOCH": 86995, "BSTAR": 0.0025968613, "MEAN_MOTION_DOT": 7.662e-05, "MEAN_MOTION_DDOT": 0}, "tle": {"line1": "1 34097U 97051DG  25338.08187521  .00007662  00000+0  25969-2 0  9991", "line2": "2 34097  86.2004   5.2294 0083591  30.3184 330.2808 14.34672763869956"}}, "geometry": {"type": "Point", "coordinates": [-175.77904628114962, 10.667004642842375]}}, {"type": "Feature", "properties": {"norad_id": 34145, "name": "IRIDIUM 33 DEB", "group": "iridium-33-debris", "lat": -42.37330800366732, "lon": 159.55479940415339, "alt_km": 766.7332385879818, "timestamp": "2025-12-04T17:48:40.549579+00:00", "meta": {"OBJECT_NAME": "IRIDIUM 33 DEB", "OBJECT_ID": "1997-051DY", "EPOCH": "2025-12-04T05:07:56.080128", "MEAN_MOTION": 14.42196317, "ECCENTRICITY": 0.00553495, "INCLINATION": 86.211, "RA_OF_ASC_NODE": 336.324, "ARG_OF_PERICENTER": 120.9354, "MEAN_ANOMALY": 239.7303, "EPHEMERIS_TYPE": 0, "CLASSIFICATION_TYPE": "U", "NORAD_CAT_ID": 34145, "ELEMENT_SET_NO": 999, "REV_AT_EPOCH": 87515, "BSTAR": 0.0021466705, "MEAN_MOTION_DOT": 7.221e-05, "MEAN_MOTION_DDOT": 0}, "tle": {"line1": "1 34145U 97051DY  25338.21384352  .00007221  00000+0  21467-2 0  9991", "line2": "2 34145  86.2110 336.3240 0055349 120.9354 239.7303 14.42196317875159"}}, "geometry": {"type": "Point", "coordinates": [159.55479940415339, -42.37330800366732]}}, {"type": "Feature", "properties": {"norad_id": 34146, "name": "IRIDIUM 33 DEB", "group": "iridium-33-debris", "lat": 25.124787556354125, "lon": -4.919147030912247, "alt_km": 740.8765797215028, "timestamp": "2025-12-04T17:48:40.549589+00:00", "meta": {"OBJECT_NAME": "IRIDIUM 33 DEB", "OBJECT_ID": "1997-051DZ", "EPOCH": "2025-12-04T01:24:47.589696", "MEAN_MOTION": 14.48952534, "ECCENTRICITY": 0.00250019, "INCLINATION": 86.2834, "RA_OF_ASC_NODE": 353.6357, "ARG_OF_PERICENTER": 252.753, "MEAN_ANOMALY": 170.5987, "EPHEMERIS_TYPE": 0, "CLASSIFICATION_TYPE": "U", "NORAD_CAT_ID": 34146, "ELEMENT_SET_NO": 999, "REV_AT_EPOCH": 87981, "BSTAR": 0.0019732729, "MEAN_MOTION_DOT": 7.524e-05, "MEAN_MOTION_DDOT": 0}, "tle": {"line1": "1 34146U 97051DZ  25338.05888414  .00007524  00000+0  19733-2 0  9991", "line2": "2 34146  86.2834 353.6357 0025001 252.7530 170.5987 14.48952534879810"}}, "geometry": {"type": "Point", "coordinates": [-4.919147030912247, 25.124787556354125]}}, {"type": "Feature", "properties": {"norad_id": 34159, "name": "IRIDIUM 33 DEB", "group": "iridium-33-debris", "lat": 42.710874653551876, "lon": 55.0275307852234, "alt_km": 759.0547058931152, "timestamp": "2025-12-04T17:48:40.549600+00:00", "meta": {"OBJECT_NAME": "IRIDIUM 33 DEB", "OBJECT_ID": "1997-051EN", "EPOCH": "2025-12-04T05:55:36.421248", "MEAN_MOTION": 14.38462175, "ECCENTRICITY": 0.00264027, "INCLINATION": 86.3517, "RA_OF_ASC_NODE": 51.862, "ARG_OF_PERICENTER": 317.679, "MEAN_ANOMALY": 42.237, "EPHEMERIS_TYPE": 0, "CLASSIFICATION_TYPE": "U", "NORAD_CAT_ID": 34159, "ELEMENT_SET_NO": 999, "REV_AT_EPOCH": 87837, "BSTAR": 0.00079830442, "MEAN_MOTION_DOT": 2.464e-05, "MEAN_MOTION_DDOT": 0}, "tle": {"line1": "1 34159U 97051EN  25338.24694932  .00002464  00000+0  79830-3 0  9999", "line2": "2 34159  86.3517  51.8620 0026402 317.6790  42.2370 14.38462175878375"}}, "geometry": {"type": "Point", "coordinates": [55.0275307852234, 42.710874653551876]}}, {"type": "Feature", "properties": {"norad_id": 34350, "name": "IRIDIUM 33 DEB", "group": "iridium-33-debris", "lat": -53.31450996574875, "lon": -168.77738778778055, "alt_km": 743.3592498669586, "timestamp": "2025-12-04T17:48:40.549610+00:00", "meta": {"OBJECT_NAME": "IRIDIUM 33 DEB", "OBJECT_ID": "1997-051ES", "EPOCH": "2025-12-04T01:54:53.906976", "MEAN_MOTION": 14.45357099, "ECCENTRICITY": 0.00219337, "INCLINATION": 86.3281, "RA_OF_ASC_NODE": 6.5649, "ARG_OF_PERICENTER": 162.4763, "MEAN_ANOMALY": 226.5026, "EPHEMERIS_TYPE": 0, "CLASSIFICATION_TYPE": "U", "NORAD_CAT_ID": 34350, "ELEMENT_SET_NO": 999, "REV_AT_EPOCH": 88168, "BSTAR": 0.00057236591, "MEAN_MOTION_DOT": 2.036e-05, "MEAN_MOTION_DDOT": 0}, "tle": {"line1": "1 34350U 97051ES  25338.07979059  .00002036  00000+0  57237-3 0  9991", "line2": "2 34350  86.3281   6.5649 0021933 162.4763 226.5026 14.45357099881683"}}, "geometry": {"type": "Point", "coordinates": [-168.77738778778055, -53.31450996574875]}}, {"type": "Feature", "properties": {"norad_id": 34366, "name": "IRIDIUM 33 DEB", "group": "iridium-33-debris", "lat": -46.794150332598, "lon": 48.91639451962499, "alt_km": 732.760888540307, "timestamp": "2025-12-04T17:48:40.549620+00:00", "meta": {"OBJECT_NAME": "IRIDIUM 33 DEB", "OBJECT_ID": "1997-051FJ", "EPOCH": "2025-12-04T06:46:15.002976", "MEAN_MOTION": 14.53935421, "ECCENTRICITY": 0.00218081, "INCLINATION": 86.3708, "RA_OF_ASC_NODE": 52.9909, "ARG_OF_PERICENTER": 166.8355, "MEAN_ANOMALY": 259.9318, "EPHEMERIS_TYPE": 0, "CLASSIFICATION_TYPE": "U", "NORAD_CAT_ID": 34366, "ELEMENT_SET_NO": 999, "REV_AT_EPOCH": 88059, "BSTAR": 0.0030543138, "MEAN_MOTION_DOT": 0.00012927, "MEAN_MOTION_DDOT": 0}, "tle": {"line1": "1 34366U 97051FJ  25338.28211809  .00012927  00000+0  30543-2 0  9993", "line2": "2 34366  86.3708  52.9909 0021808 166.8355 259.9318 14.53935421880597"}}, "geometry": {"type": "Point", "coordinates": [48.91639451962499, -46.794150332598]}}]}